DONGPO 02               
1 53452U 22098J   26130.21526454  .00061691  00000+0  55292-3 0  9999
2 53452  97.5469 258.3436 0002681 129.9114 230.2382 15.68130781208837
DONGPO 01               
1 53453U 22098K   26130.22563714  .00046598  00000+0  44577-3 0  9994
2 53453  97.5533 258.9578 0000905 152.0790 208.0519 15.66578253208807
STARLINK-4400           
1 53468U 22099D   26129.89839578 -.00001434  00000+0 -95296-4 0  9993
2 53468  97.5126 250.3359 0000192 201.0899 159.0320 15.05654935205185
STARLINK-4621           
1 53676U 22105AE  26130.16700598  .00004910  00000+0  34443-3 0  9999
2 53676  97.5138  10.6076 0002563  66.5164 293.6332 15.05621621202489
SHERPA-LTC2             
1 53754U 22107BG  26130.09750668  .00004427  00000+0  23070-3 0  9990
2 53754  53.2345  21.5215 0397897 119.6245 244.4984 14.69157046196942
CENTISPACE-1 S3         
1 53757U 22108A   26130.17677101  .00000237  00000+0  85715-4 0  9993
2 53757  53.5325 212.4302 0008318 238.3726 121.6438 14.61217317195976
CENTISPACE-1 S4         
1 53758U 22108B   26130.17865111  .00000348  00000+0  10681-3 0  9996
2 53758  53.5299 210.1191 0008115 224.0313 136.0017 14.61889628196005
BLUEWALKER-3            
1 53807U 22111AL  26130.23011241  .00003806  00000+0  11128-3 0  9998
2 53807  53.2284 212.1002 0007315  63.5105 296.6650 15.37817609204369
YUNHAI-1 03             
1 53877U 22115A   26130.19553914  .00000264  00000+0  11300-3 0  9999
2 53877  98.5538 128.8265 0005308 146.2073 213.9450 14.32691431190076
CENTISPACE-1 S5         
1 54020U 22126A   26130.16346334  .00000544  00000+0  14212-3 0  9991
2 54020  55.0004   5.1106 0012089 356.0364   4.0532 14.62944238191476
CENTISPACE-1 S6         
1 54021U 22126B   26130.13801006  .00000441  00000+0  12385-3 0  9996
2 54021  55.0007   6.9030 0013920 354.8794   5.2055 14.62234914191435
OTB-3-GAZELLE           
1 54023U 22127A   26129.98313929  .00000109  00000+0  45761-4 0  9998
2 54023  98.3940 122.2717 0012109 307.6963  52.3128 14.42660502188859
ASO-S                   
1 54029U 22129A   26130.14732646  .00000123  00000+0  41358-4 0  9991
2 54029  98.2758 135.7722 0013686 204.6485 155.4058 14.52042947189904
HJ-2E                   
1 54035U 22132A   26130.21875399  .00005356  00000+0  23781-3 0  9995
2 54035  97.3813 135.2971 0022094 138.7723 221.5187 15.21749229198642
COSMOS 2561             
1 54109U 22137A   26130.16595289  .00009406  00000+0  16466-3 0  9995
2 54109  96.9223 190.6066 0010767 156.7277 203.4465 15.50743605200457
GONETS-M 23             
1 54150U 22139A   26130.18773083  .00000014  00000+0  28209-4 0  9990
2 54150  82.5101  11.9104 0020868 306.9009  53.0158 12.42889092160926
GONETS-M 24             
1 54151U 22139B   26130.16085727  .00000022  00000+0  89130-4 0  9999
2 54151  82.5003  11.0130 0016270 318.4437  41.5405 12.42889686160929
GONETS-M 25             
1 54152U 22139C   26130.14720558  .00000003  00000+0 -51565-4 0  9997
2 54152  82.5078  11.6872 0020152 316.2322  43.7159 12.42888935160920
SKIF-D                  
1 54153U 22139D   26129.28440799  .00000040  00000+0  00000+0 0  9990
2 54153  89.9558  96.6795 0007373 214.5123 145.4786  5.00439038 62166
MATS                    
1 54227U 22147A   26129.95774044  .00003049  00000+0  21834-3 0  9992
2 54227  97.6825 131.7277 0011814 336.0047  24.0627 15.05114662192010
JILIN-1 GAOFEN 03D54    
1 54254U 22155D   26130.17180581  .00115537  00000+0  55747-3 0  9990
2 54254  97.6087 278.7853 0002299 169.9179 190.2136 15.82266026194265
EOS-6 (OCEANSAT-3)      
1 54361U 22158A   26130.19999648  .00000191  00000+0  64467-4 0  9995
2 54361  98.3524 228.9026 0002263  91.4104 268.7347 14.47018311182348
DONGPO 09               
1 54685U 22167D   26130.16638510  .00008263  00000+0  24199-3 0  9994
2 54685  97.6880 299.5096 0001284 237.8204 122.2914 15.35501329189619
DONGPO 08               
1 54686U 22167E   26130.21197815  .00006478  00000+0  20633-3 0  9994
2 54686  97.6840 296.9124 0007020 306.3778  53.6815 15.32907894189500
2022-167F               
1 54687U 22167F   26130.21897997  .00089511  00000+0  46956-3 0  9998
2 54687  97.6176 313.8348 0003196 184.8222 175.3015 15.80514257190813
DONGPO 10               
1 54689U 22167H   26130.17303065  .00007419  00000+0  23032-3 0  9990
2 54689  97.6924 298.7341 0003997 239.5588 120.5259 15.33686838189534
JILIN-1 GAOFEN 03D48    
1 54695U 22167P   26130.18923184  .00007825  00000+0  23723-3 0  9996
2 54695  97.6856 298.1175 0005275 245.6199 114.4493 15.34417895189562
STAR VIBE               
1 55009U 23001A   26130.14437660  .00009921  00000+0  23790-3 0  9992
2 55009  97.3192 194.4813 0004450 239.8153 120.2653 15.41587075186362
BRO-8                   
1 55011U 23001C   26130.16390642  .00020568  00000+0  41115-3 0  9996
2 55011  97.3236 194.8646 0004717 246.0385 114.0371 15.46815786186327
CONNECTA T1.2           
1 55012U 23001D   26130.12783854  .00026014  00000+0  49761-3 0  9991
2 55012  97.3297 200.2197 0005723 217.3208 142.7646 15.48041041186657
