OBJECT_NAME,OBJECT_ID,EPOCH,MEAN_MOTION,ECCENTRICITY,INCLINATION,RA_OF_ASC_NODE,ARG_OF_PERICENTER,MEAN_ANOMALY,EPHEMERIS_TYPE,CLASSIFICATION_TYPE,NORAD_CAT_ID,ELEMENT_SET_NO,REV_AT_EPOCH,BSTAR,MEAN_MOTION_DOT,MEAN_MOTION_DDOT
DONGPO 02,2022-098J,2026-05-10T05:09:58.856256,15.68130781,.0002681,97.5469,258.3436,129.9114,230.2382,0,U,53452,999,20883,.55292E-3,.61691E-3,0
DONGPO 01,2022-098K,2026-05-10T05:24:55.048896,15.66578253,.0000905,97.5533,258.9578,152.0790,208.0519,0,U,53453,999,20880,.44577E-3,.46598E-3,0
STARLINK-4400,2022-099D,2026-05-09T21:33:41.395392,15.05654935,.0000192,97.5126,250.3359,201.0899,159.0320,0,U,53468,999,20518,-.95296E-4,-.1434E-4,0
STARLINK-4621,2022-105AE,2026-05-10T04:00:29.316672,15.05621621,.0002563,97.5138,10.6076,66.5164,293.6332,0,U,53676,999,20248,.34443E-3,.491E-4,0
SHERPA-LTC2,2022-107BG,2026-05-10T02:20:24.577152,14.69157046,.0397897,53.2345,21.5215,119.6245,244.4984,0,U,53754,999,19694,.2307E-3,.4427E-4,0
CENTISPACE-1 S3,2022-108A,2026-05-10T04:14:33.015264,14.61217317,.0008318,53.5325,212.4302,238.3726,121.6438,0,U,53757,999,19597,.85715E-4,.237E-5,0
CENTISPACE-1 S4,2022-108B,2026-05-10T04:17:15.455904,14.61889628,.0008115,53.5299,210.1191,224.0313,136.0017,0,U,53758,999,19600,.10681E-3,.348E-5,0
BLUEWALKER-3,2022-111AL,2026-05-10T05:31:21.712224,15.37817609,.0007315,53.2284,212.1002,63.5105,296.6650,0,U,53807,999,20436,.11128E-3,.3806E-4,0
YUNHAI-1 03,2022-115A,2026-05-10T04:41:34.581696,14.32691431,.0005308,98.5538,128.8265,146.2073,213.9450,0,U,53877,999,19007,.113E-3,.264E-5,0
CENTISPACE-1 S5,2022-126A,2026-05-10T03:55:23.232576,14.62944238,.0012089,55.0004,5.1106,356.0364,4.0532,0,U,54020,999,19147,.14212E-3,.544E-5,0
CENTISPACE-1 S6,2022-126B,2026-05-10T03:18:44.069184,14.62234914,.001392,55.0007,6.9030,354.8794,5.2055,0,U,54021,999,19143,.12385E-3,.441E-5,0
OTB-3-GAZELLE,2022-127A,2026-05-09T23:35:43.234656,14.42660502,.0012109,98.3940,122.2717,307.6963,52.3128,0,U,54023,999,18885,.45761E-4,.109E-5,0
ASO-S,2022-129A,2026-05-10T03:32:09.006144,14.52042947,.0013686,98.2758,135.7722,204.6485,155.4058,0,U,54029,999,18990,.41358E-4,.123E-5,0
HJ-2E,2022-132A,2026-05-10T05:15:00.344736,15.21749229,.0022094,97.3813,135.2971,138.7723,221.5187,0,U,54035,999,19864,.23781E-3,.5356E-4,0
COSMOS 2561,2022-137A,2026-05-10T03:58:58.329696,15.50743605,.0010767,96.9223,190.6066,156.7277,203.4465,0,U,54109,999,20045,.16466E-3,.9406E-4,0
GONETS-M 23,2022-139A,2026-05-10T04:30:19.943712,12.42889092,.0020868,82.5101,11.9104,306.9009,53.0158,0,U,54150,999,16092,.28209E-4,.14E-6,0
GONETS-M 24,2022-139B,2026-05-10T03:51:38.068128,12.42889686,.001627,82.5003,11.0130,318.4437,41.5405,0,U,54151,999,16092,.8913E-4,.22E-6,0
GONETS-M 25,2022-139C,2026-05-10T03:31:58.562112,12.42888935,.0020152,82.5078,11.6872,316.2322,43.7159,0,U,54152,999,16092,-.51565E-4,.3E-7,0
SKIF-D,2022-139D,2026-05-09T06:49:32.850336,5.00439038,.00073738,89.9558,96.6795,214.5123,145.4786,0,U,54153,999,6216,0,.4E-6,0
MATS,2022-147A,2026-05-09T22:59:08.774016,15.05114662,.0011814,97.6825,131.7277,336.0047,24.0627,0,U,54227,999,19201,.21834E-3,.3049E-4,0
JILIN-1 GAOFEN 03D54,2022-155D,2026-05-10T04:07:24.021984,15.82266026,.0002299,97.6087,278.7853,169.9179,190.2136,0,U,54254,999,19426,.55747E-3,.115537E-2,0
EOS-6 (OCEANSAT-3),2022-158A,2026-05-10T04:47:59.695872,14.47018311,.0002263,98.3524,228.9026,91.4104,268.7347,0,U,54361,999,18234,.64467E-4,.191E-5,0
DONGPO 09,2022-167D,2026-05-10T03:59:35.672640,15.35501329,.0001284,97.6880,299.5096,237.8204,122.2914,0,U,54685,999,18961,.24199E-3,.8263E-4,0
DONGPO 08,2022-167E,2026-05-10T05:05:14.912160,15.32907894,.000702,97.6840,296.9124,306.3778,53.6815,0,U,54686,999,18950,.20633E-3,.6478E-4,0
2022-167F,2022-167F,2026-05-10T05:15:19.869408,15.80514257,.0003196,97.6176,313.8348,184.8222,175.3015,0,U,54687,999,19081,.46956E-3,.89511E-3,0
DONGPO 10,2022-167H,2026-05-10T04:09:09.848160,15.33686838,.0003997,97.6924,298.7341,239.5588,120.5259,0,U,54689,999,18953,.23032E-3,.7419E-4,0
JILIN-1 GAOFEN 03D48,2022-167P,2026-05-10T04:32:29.630976,15.34417895,.0005275,97.6856,298.1175,245.6199,114.4493,0,U,54695,999,18956,.23723E-3,.7825E-4,0
STAR VIBE,2023-001A,2026-05-10T03:27:54.138240,15.41587075,.000445,97.3192,194.4813,239.8153,120.2653,0,U,55009,999,18636,.2379E-3,.9921E-4,0
BRO-8,2023-001C,2026-05-10T03:56:01.514688,15.46815786,.0004717,97.3236,194.8646,246.0385,114.0371,0,U,55011,999,18632,.41115E-3,.20568E-3,0
CONNECTA T1.2,2023-001D,2026-05-10T03:04:05.249856,15.48041041,.0005723,97.3297,200.2197,217.3208,142.7646,0,U,55012,999,18665,.49761E-3,.26014E-3,0
